{"type": "FeatureCollection", "features": [ {"type": "Feature", "properties": {"norad_id": 64901, "name": "CO3D 4", "group": "resource", "lat": -40.85462639640122, "lon": 68.32285125130309, "alt_km": 512.1601635453144, "timestamp": "2025-12-11T10:53:15.543013+00:00", "meta": {"OBJECT_NAME": "CO3D 4", "OBJECT_ID": "2025-156C", "EPOCH": "2025-12-09T21:09:17.831232", "MEAN_MOTION": 15.20201124, "ECCENTRICITY": 0.0001172, "INCLINATION": 97.4339, "RA_OF_ASC_NODE": 60.2895, "ARG_OF_PERICENTER": 212.2858, "MEAN_ANOMALY": 147.8306, "EPHEMERIS_TYPE": 0, "CLASSIFICATION_TYPE": "U", "NORAD_CAT_ID": 64901, "ELEMENT_SET_NO": 999, "REV_AT_EPOCH": 2077, "BSTAR": -2.5806744e-05, "MEAN_MOTION_DOT": -6.26e-06, "MEAN_MOTION_DDOT": 0}, "tle": {"line1": "1 64901U 25156C   25343.88145638 -.00000626  00000+0 -25807-4 0  9990", "line2": "2 64901  97.4339  60.2895 0001172 212.2858 147.8306 15.20201124 20779"}}, "geometry": {"type": "Point", "coordinates": [68.32285125130309, -40.85462639640122]}}, {"type": "Feature", "properties": {"norad_id": 64902, "name": "CO3D 2", "group": "resource", "lat": 39.522051454835015, "lon": -112.100295757744, "alt_km": 508.3628747597222, "timestamp": "2025-12-11T10:53:15.543024+00:00", "meta": {"OBJECT_NAME": "CO3D 2", "OBJECT_ID": "2025-156D", "EPOCH": "2025-12-09T12:27:23.938848", "MEAN_MOTION": 15.20057842, "ECCENTRICITY": 0.00090681, "INCLINATION": 97.4213, "RA_OF_ASC_NODE": 59.8234, "ARG_OF_PERICENTER": 303.4369, "MEAN_ANOMALY": 56.5998, "EPHEMERIS_TYPE": 0, "CLASSIFICATION_TYPE": "U", "NORAD_CAT_ID": 64902, "ELEMENT_SET_NO": 999, "REV_AT_EPOCH": 2071, "BSTAR": 0.00028838885, "MEAN_MOTION_DOT": 6.16e-05, "MEAN_MOTION_DDOT": 0}, "tle": {"line1": "1 64902U 25156D   25343.51902707  .00006160  00000+0  28839-3 0  9993", "line2": "2 64902  97.4213  59.8234 0009068 303.4369  56.5998 15.20057842 20717"}}, "geometry": {"type": "Point", "coordinates": [-112.100295757744, 39.522051454835015]}}, {"type": "Feature", "properties": {"norad_id": 64903, "name": "CO3D 1", "group": "resource", "lat": 39.12118879203015, "lon": -112.16656204792403, "alt_km": 501.8215497938718, "timestamp": "2025-12-11T10:53:15.543036+00:00", "meta": {"OBJECT_NAME": "CO3D 1", "OBJECT_ID": "2025-156E", "EPOCH": "2025-12-11T05:31:58.834848", "MEAN_MOTION": 15.20213897, "ECCENTRICITY": 9.32e-05, "INCLINATION": 97.4338, "RA_OF_ASC_NODE": 61.5178, "ARG_OF_PERICENTER": 96.9471, "MEAN_ANOMALY": 263.187, "EPHEMERIS_TYPE": 0, "CLASSIFICATION_TYPE": "U", "NORAD_CAT_ID": 64903, "ELEMENT_SET_NO": 999, "REV_AT_EPOCH": 2097, "BSTAR": 0.00040425, "MEAN_MOTION_DOT": 8.697e-05, "MEAN_MOTION_DDOT": 0}, "tle": {"line1": "1 64903U 25156E   25345.23054207  .00008697  00000+0  40425-3 0  9990", "line2": "2 64903  97.4338  61.5178 0000932  96.9471 263.1870 15.20213897 20979"}}, "geometry": {"type": "Point", "coordinates": [-112.16656204792403, 39.12118879203015]}}, {"type": "Feature", "properties": {"norad_id": 66514, "name": "SENTINEL-6B", "group": "resource", "lat": -51.33071682428713, "lon": 131.33766907606184, "alt_km": 1317.9008157656235, "timestamp": "2025-12-11T10:53:15.543047+00:00", "meta": {"OBJECT_NAME": "SENTINEL-6B", "OBJECT_ID": "2025-264A", "EPOCH": "2025-12-08T23:22:28.347744", "MEAN_MOTION": 12.8403254, "ECCENTRICITY": 0.00210881, "INCLINATION": 66.0391, "RA_OF_ASC_NODE": 170.2706, "ARG_OF_PERICENTER": 268.225, "MEAN_ANOMALY": 91.6352, "EPHEMERIS_TYPE": 0, "CLASSIFICATION_TYPE": "U", "NORAD_CAT_ID": 66514, "ELEMENT_SET_NO": 999, "REV_AT_EPOCH": 280, "BSTAR": -0.0054273268, "MEAN_MOTION_DOT": -1.368e-05, "MEAN_MOTION_DDOT": 0}, "tle": {"line1": "1 66514U 25264A   25342.97393921 -.00001368  00000+0 -54273-2 0  9992", "line2": "2 66514  66.0391 170.2706 0021088 268.2250  91.6352 12.84032540  2801"}}, "geometry": {"type": "Point", "coordinates": [131.33766907606184, -51.33071682428713]}}]}